[{"OBJECT_NAME":"STARLINK-33565","OBJECT_ID":"2024-237X","EPOCH":"2026-03-09T10:26:45.707136","MEAN_MOTION":15.27606709,"ECCENTRICITY":0.00010197,"INCLINATION":43.0014,"RA_OF_ASC_NODE":206.4987,"ARG_OF_PERICENTER":196.733,"MEAN_ANOMALY":163.3488,"EPHEMERIS_TYPE":0,"CLASSIFICATION_TYPE":"U","NORAD_CAT_ID":62288,"ELEMENT_SET_NO":999,"REV_AT_EPOCH":7128,"BSTAR":0.0011002153,"MEAN_MOTION_DOT":0.00030162,"MEAN_MOTION_DDOT":0},{"OBJECT_NAME":"COSMOS 1408 DEB","OBJECT_ID":"1982-092ADS","EPOCH":"2026-03-09T15:14:01.495392","MEAN_MOTION":15.34178134,"ECCENTRICITY":0.0122957,"INCLINATION":82.1939,"RA_OF_ASC_NODE":124.7493,"ARG_OF_PERICENTER":254.6382,"MEAN_ANOMALY":104.1246,"EPHEMERIS_TYPE":0,"CLASSIFICATION_TYPE":"U","NORAD_CAT_ID":50404,"ELEMENT_SET_NO":999,"REV_AT_EPOCH":22516,"BSTAR":0.0029669,"MEAN_MOTION_DOT":0.00127192,"MEAN_MOTION_DDOT":0}]
